[{"OBJECT_NAME":"CENTAURI-1","OBJECT_ID":"2018-099BD","EPOCH":"2026-03-09T22:09:49.248288","MEAN_MOTION":15.15253131,"ECCENTRICITY":0.00131381,"INCLINATION":97.4356,"RA_OF_ASC_NODE":122.787,"ARG_OF_PERICENTER":317.3233,"MEAN_ANOMALY":42.6978,"EPHEMERIS_TYPE":0,"CLASSIFICATION_TYPE":"U","NORAD_CAT_ID":43809,"ELEMENT_SET_NO":999,"REV_AT_EPOCH":39746,"BSTAR":0.00036885866,"MEAN_MOTION_DOT":6.886e-5,"MEAN_MOTION_DDOT":0},{"OBJECT_NAME":"TRANSPORTER-15 OBJECT L","OBJECT_ID":"2025-276L","EPOCH":"2026-03-09T15:55:29.246880","MEAN_MOTION":15.17958705,"ECCENTRICITY":0.00058754,"INCLINATION":97.4247,"RA_OF_ASC_NODE":143.7845,"ARG_OF_PERICENTER":7.6723,"MEAN_ANOMALY":352.46,"EPHEMERIS_TYPE":0,"CLASSIFICATION_TYPE":"U","NORAD_CAT_ID":66676,"ELEMENT_SET_NO":999,"REV_AT_EPOCH":1530,"BSTAR":0.00032541658,"MEAN_MOTION_DOT":6.545e-5,"MEAN_MOTION_DDOT":0}]
